OBJECT_NAME,OBJECT_ID,EPOCH,MEAN_MOTION,ECCENTRICITY,INCLINATION,RA_OF_ASC_NODE,ARG_OF_PERICENTER,MEAN_ANOMALY,EPHEMERIS_TYPE,CLASSIFICATION_TYPE,NORAD_CAT_ID,ELEMENT_SET_NO,REV_AT_EPOCH,BSTAR,MEAN_MOTION_DOT,MEAN_MOTION_DDOT
SKYSAT-C1,2016-040C,2026-06-11T14:45:06.687936,15.36206856,.00039157,96.9571,194.6368,68.8663,291.3000,0,U,41601,999,55701,.24149891E-3,.8449E-4,0
LAPAN-A3,2016-040E,2026-06-11T15:26:11.697216,15.33069084,.00114955,97.1484,158.9710,44.0502,316.1655,0,U,41603,999,55396,.95816186E-4,.2991E-4,0
GAOFEN-3,2016-049A,2026-06-11T14:28:28.810272,14.42214969,.00012786,98.4014,170.4733,99.0515,261.0819,0,U,41727,999,51784,.36781664E-4,.78E-6,0
SKYSAT-C4,2016-058B,2026-06-11T13:56:25.646496,15.48411611,.00009568,96.9177,184.5882,116.6405,243.4945,0,U,41771,999,54460,.28218424E-3,.14882E-3,0
SKYSAT-C5,2016-058C,2026-06-11T08:45:49.780800,15.34385725,.00016551,97.0478,203.2653,352.7956,7.3263,0,U,41772,999,54285,.19108098E-3,.6288E-4,0
SKYSAT-C2,2016-058D,2026-06-11T14:43:42.183552,15.41943736,.00050305,97.0174,184.9185,82.8740,277.3080,0,U,41773,999,54419,.26782398E-3,.11321E-3,0
SKYSAT-C3,2016-058E,2026-06-11T12:51:07.341696,15.52297681,.00017507,96.9012,193.6007,86.2844,273.8610,0,U,41774,999,54523,.33989696E-3,.206E-3,0
ALSAT-1B,2016-059C,2026-06-11T14:22:52.113792,14.72270695,.00078154,97.7754,171.6041,240.8876,119.1550,0,U,41785,999,51975,.60688144E-4,.336E-5,0
PATHFINDER 1,2016-059E,2026-06-11T13:06:15.827328,14.67656806,.00273944,97.8166,162.0768,222.0974,137.8127,0,U,41787,999,51888,.9493789E-4,.496E-5,0
SCATSAT 1,2016-059H,2026-06-11T14:23:54.251808,14.79513916,.00532538,98.1191,226.3083,265.9814,93.5308,0,U,41790,999,10076,.12665076E-3,.912E-5,0
GOKTURK 1A,2016-073A,2026-06-11T15:16:42.563136,14.62770686,.00014458,98.1260,57.3975,78.2361,281.9003,0,U,41875,999,50801,.7132525E-4,.317E-5,0
RESOURCESAT-2A,2016-074A,2026-06-11T13:56:37.397760,14.21615349,.00033824,98.7526,236.1312,94.2498,265.9066,0,U,41877,999,49350,.12494835E-3,.23E-5,0
CARTOSAT-2D,2017-008A,2026-06-11T15:01:28.113312,15.19295528,.0003604,97.4117,222.0359,254.7228,105.3609,0,U,41948,999,51673,.27337737E-3,.5703E-4,0
SENTINEL-2B,2017-013A,2026-06-11T14:42:50.163840,14.30816451,.0001192,98.5690,237.4663,84.7823,275.3496,0,U,42063,999,48384,.16583187E-3,.391E-5,0
CARTOSAT-2E,2017-036C,2026-06-11T09:07:28.320960,15.19276811,.00027386,97.4279,222.2784,345.0815,15.0338,0,U,42767,999,49726,.17867069E-3,.3701E-4,0
FORMOSAT-5,2017-049A,2026-06-11T12:51:35.897760,14.50896763,.00127051,98.2253,237.9709,99.9132,260.3498,0,U,42920,999,46585,.42266969E-4,.123E-5,0
SENTINEL-5P,2017-064A,2026-06-11T10:07:43.147488,14.19518005,.00009885,98.7925,104.5943,83.4551,276.6737,0,U,42969,999,44874,.31827362E-4,.23E-6,0
SKYSAT-C11,2017-068A,2026-06-11T09:42:19.125792,15.57594006,.00008808,97.4337,310.9856,86.6120,273.5236,0,U,42987,999,48234,.30874459E-3,.22701E-3,0
SKYSAT-C10,2017-068B,2026-06-11T08:36:23.746752,15.34538193,.00011689,97.4490,299.1499,92.3296,267.8081,0,U,42988,999,48146,.22533006E-3,.7458E-4,0
SKYSAT-C9,2017-068C,2026-06-11T15:45:07.521984,15.41424602,.00091618,97.4411,300.3327,150.5736,209.6029,0,U,42989,999,48190,.30298348E-3,.12606E-3,0
SKYSAT-C8,2017-068D,2026-06-11T08:07:51.519936,15.36860099,.00015236,97.4508,298.9075,97.0045,263.1372,0,U,42990,999,48141,.25108681E-3,.8965E-4,0
SKYSAT-C7,2017-068E,2026-06-11T15:47:11.751360,15.36816791,.00071259,97.4520,300.2198,122.5745,237.6188,0,U,42991,999,48152,.28624379E-3,.10227E-3,0
SKYSAT-C6,2017-068F,2026-06-11T08:12:11.769696,15.34108684,.00041426,97.4555,299.8907,152.7349,207.4112,0,U,42992,999,48142,.24524316E-3,.8016E-4,0
CARTOSAT-2F,2018-004A,2026-06-11T14:38:08.389248,15.19174201,.00002713,97.4797,222.2988,291.9939,68.1266,0,U,43111,999,46648,.24221298E-3,.5026E-4,0
GAOFEN-1 02,2018-031A,2026-06-11T14:32:16.324800,14.76450345,.0004146,98.0530,225.1486,47.6890,312.4671,0,U,43259,999,44187,.16857825E-3,.1121E-4,0
GAOFEN-1 03,2018-031B,2026-06-11T15:38:27.714624,14.76461232,.0003819,98.0525,225.0531,90.0964,270.0683,0,U,43260,999,44187,.97140497E-4,.624E-5,0
GAOFEN-1 04,2018-031D,2026-06-11T15:03:28.236096,14.76473302,.00022658,98.0531,225.2189,87.7510,272.3959,0,U,43262,999,44186,.15966915E-3,.106E-4,0
SENTINEL-3B,2018-039A,2026-06-11T10:32:13.596000,14.26740095,.00008094,98.6248,230.0537,80.8461,279.2811,0,U,43437,999,42330,.49397441E-4,.76E-6,0
GAOFEN-5 01,2018-043A,2026-06-11T12:18:26.428896,14.60601552,.00030488,98.4567,133.9800,93.7546,266.4002,0,U,43461,999,43086,.6748423E-4,.279E-5,0
GAOFEN-6,2018-048A,2026-06-11T15:35:58.443936,14.76588225,.0011395,97.8379,225.5422,185.7681,174.3400,0,U,43484,999,43257,.12384289E-4,.37E-6,0
