SKYSAT-C1               
1 41601U 16040C   26162.61466074  .00008449  00000+0  24150-3 0  9993
2 41601  96.9571 194.6368 0003915  68.8663 291.3000 15.36206856557018
LAPAN-A3                
1 41603U 16040E   26162.64319094  .00002991  00000+0  95816-4 0  9991
2 41603  97.1484 158.9710 0011495  44.0502 316.1655 15.33069084553969
GAOFEN-3                
1 41727U 16049A   26162.60311123  .00000078  00000+0  36782-4 0  9999
2 41727  98.4014 170.4733 0001278  99.0515 261.0819 14.42214969517845
SKYSAT-C4               
1 41771U 16058B   26162.58085239  .00014882  00000+0  28218-3 0  9993
2 41771  96.9177 184.5882 0000956 116.6405 243.4945 15.48411611544602
SKYSAT-C5               
1 41772U 16058C   26162.36515950  .00006288  00000+0  19108-3 0  9997
2 41772  97.0478 203.2653 0001655 352.7956   7.3263 15.34385725542851
SKYSAT-C2               
1 41773U 16058D   26162.61368268  .00011321  00000+0  26782-3 0  9994
2 41773  97.0174 184.9185 0005030  82.8740 277.3080 15.41943736544198
SKYSAT-C3               
1 41774U 16058E   26162.53550164  .00020600  00000+0  33990-3 0  9993
2 41774  96.9012 193.6007 0001750  86.2844 273.8610 15.52297681545235
ALSAT-1B                
1 41785U 16059C   26162.59921428  .00000336  00000+0  60688-4 0  9996
2 41785  97.7754 171.6041 0007815 240.8876 119.1550 14.72270695519754
PATHFINDER 1            
1 41787U 16059E   26162.54601652  .00000496  00000+0  94938-4 0  9999
2 41787  97.8166 162.0768 0027394 222.0974 137.8127 14.67656806518885
SCATSAT 1               
1 41790U 16059H   26162.59993347  .00000912  00000+0  12665-3 0  9992
2 41790  98.1191 226.3083 0053253 265.9814  93.5308 14.79513916100767
GOKTURK 1A              
1 41875U 16073A   26162.63660374  .00000317  00000+0  71325-4 0  9996
2 41875  98.1260  57.3975 0001445  78.2361 281.9003 14.62770686508014
RESOURCESAT-2A          
1 41877U 16074A   26162.58098840  .00000230  00000+0  12495-3 0  9992
2 41877  98.7526 236.1312 0003382  94.2498 265.9066 14.21615349493507
CARTOSAT-2D             
1 41948U 17008A   26162.62601983  .00005703  00000+0  27338-3 0  9994
2 41948  97.4117 222.0359 0003604 254.7228 105.3609 15.19295528516736
SENTINEL-2B             
1 42063U 17013A   26162.61308060  .00000391  00000+0  16583-3 0  9996
2 42063  98.5690 237.4663 0001192  84.7823 275.3496 14.30816451483846
CARTOSAT-2E             
1 42767U 17036C   26162.38018890  .00003701  00000+0  17867-3 0  9999
2 42767  97.4279 222.2784 0002738 345.0815  15.0338 15.19276811497268
FORMOSAT-5              
1 42920U 17049A   26162.53583215  .00000123  00000+0  42267-4 0  9997
2 42920  98.2253 237.9709 0012705  99.9132 260.3498 14.50896763465852
SENTINEL-5P             
1 42969U 17064A   26162.42202717  .00000023  00000+0  31827-4 0  9999
2 42969  98.7925 104.5943 0000988  83.4551 276.6737 14.19518005448748
SKYSAT-C11              
1 42987U 17068A   26162.40438803  .00022701  00000+0  30874-3 0  9995
2 42987  97.4337 310.9856 0000880  86.6120 273.5236 15.57594006482347
SKYSAT-C10              
1 42988U 17068B   26162.35860818  .00007458  00000+0  22533-3 0  9990
2 42988  97.4490 299.1499 0001168  92.3296 267.8081 15.34538193481463
SKYSAT-C9               
1 42989U 17068C   26162.65633706  .00012606  00000+0  30298-3 0  9996
2 42989  97.4411 300.3327 0009161 150.5736 209.6029 15.41424602481901
SKYSAT-C8               
1 42990U 17068D   26162.33879074  .00008965  00000+0  25109-3 0  9991
2 42990  97.4508 298.9075 0001523  97.0045 263.1372 15.36860099481414
SKYSAT-C7               
1 42991U 17068E   26162.65777490  .00010227  00000+0  28624-3 0  9995
2 42991  97.4520 300.2198 0007125 122.5745 237.6188 15.36816791481520
SKYSAT-C6               
1 42992U 17068F   26162.34180289  .00008016  00000+0  24524-3 0  9994
2 42992  97.4555 299.8907 0004142 152.7349 207.4112 15.34108684481425
CARTOSAT-2F             
1 43111U 18004A   26162.60981932  .00005026  00000+0  24221-3 0  9994
2 43111  97.4797 222.2988 0000271 291.9939  68.1266 15.19174201466488
GAOFEN-1 02             
1 43259U 18031A   26162.60574450  .00001121  00000+0  16858-3 0  9999
2 43259  98.0530 225.1486 0004146  47.6890 312.4671 14.76450345441874
GAOFEN-1 03             
1 43260U 18031B   26162.65170966  .00000624  00000+0  97140-4 0  9991
2 43260  98.0525 225.0531 0003819  90.0964 270.0683 14.76461232441879
GAOFEN-1 04             
1 43262U 18031D   26162.62741014  .00001060  00000+0  15967-3 0  9999
2 43262  98.0531 225.2189 0002265  87.7510 272.3959 14.76473302441864
SENTINEL-3B             
1 43437U 18039A   26162.43904625  .00000076  00000+0  49397-4 0  9990
2 43437  98.6248 230.0537 0000809  80.8461 279.2811 14.26740095423304
GAOFEN-5 01             
1 43461U 18043A   26162.51280589  .00000279  00000+0  67484-4 0  9999
2 43461  98.4567 133.9800 0003048  93.7546 266.4002 14.60601552430863
GAOFEN-6                
1 43484U 18048A   26162.64998199  .00000037  00000+0  12384-4 0  9997
2 43484  97.8379 225.5422 0011395 185.7681 174.3400 14.76588225432573
